GLOBALSTAR M075         
1 37192U 10054E   25351.73634080 -.00000091  00000+0  72174-4 0  9994
2 37192  51.9972 342.6695 0000324  70.0279 101.0008 12.62270606699024
GLOBALSTAR M073         
1 37193U 10054F   25356.86362721 -.00000076  00000+0  15722-3 0  9992
2 37193  52.0051 241.0257 0001052  57.7858  21.5494 12.62268197701666
GLOBALSTAR M083         
1 37739U 11033A   25356.86186786 -.00000095  00000+0  46780-4 0  9991
2 37739  51.9831 189.4995 0001019  75.8795 297.4114 12.62266019670685
GLOBALSTAR M088         
1 37740U 11033B   25356.45394985 -.00000108  00000+0 -21056-4 0  9995
2 37740  52.0217  96.7397 0000827 123.7995 314.2950 12.62270972666172
GLOBALSTAR M091         
1 37741U 11033C   25356.45324429 -.00000096  00000+0  43633-4 0  9992
2 37741  52.0010  59.9701 0000464 140.3083 233.7711 12.62268188666967
GLOBALSTAR M085         
1 37742U 11033D   25356.46923847 -.00000098  00000+0  31598-4 0  9992
2 37742  52.0144  11.0587 0000038 128.5788  18.8951 12.62267426667473
GLOBALSTAR M081         
1 37743U 11033E   25351.59018587 -.00000087  00000+0  92331-4 0  9998
2 37743  51.9980  28.5496 0000222  94.7932  71.3857 12.62270971667009
GLOBALSTAR M089         
1 37744U 11033F   25356.38037688 -.00000085  00000+0  10537-3 0  9999
2 37744  51.9952 328.1583 0000676  70.1803  94.3330 12.62262611668456
